NORAD_CAT_ID,OBJECT_NAME,OBJECT_TYPE,EPOCH,MEAN_MOTION,ECCENTRICITY,INCLINATION,RA_OF_ASC_NODE,ARG_OF_PERICENTER,MEAN_ANOMALY,BSTAR,MEAN_MOTION_DOT,MEAN_MOTION_DDOT,TLE_LINE0,TLE_LINE1,TLE_LINE2,SEMIMAJOR_AXIS,PERIOD,APOGEE,PERIGEE,DECAYED
51768.0,STARLINK-3622,PAYLOAD,2022-06-26 14:00:01,15.08839283,0.0001923,53.2153,288.955,54.1006,244.2396,-5.8064e-05,-1.212e-05,0.0,0 STARLINK-3622,1 51768U 22017A   22177.58335648 -.00001212  00000-0 -58064-4 0  9995,2 51768  53.2153 288.9550 0001923  54.1006 244.2396 15.08839283  1307,6917.8830000000025,95.438,541.078,538.4169999999998,0.0
51768.0,STARLINK-3622,PAYLOAD,2022-06-26 22:00:00,15.0886365,0.0001826,53.2151,287.4583,51.9874,257.8764,-0.0041528,-0.0006582,0.0,0 STARLINK-3622,1 51768U 22017A   22177.91667824 -.00065820  00000-0 -41528-2 0  9996,2 51768  53.2151 287.4583 0001826  51.9874 257.8764 15.08863650 19982,6917.808000000001,95.436,540.936,538.41,0.0
51768.0,STARLINK-3622,PAYLOAD,2022-06-27 14:00:01,15.088302,0.0001816,53.2154,284.4661,52.8844,280.1274,-0.00030666,-5.164e-05,0.0,0 STARLINK-3622,1 51768U 22017A   22178.58334491 -.00005164  00000-0 -30666-3 0  9998,2 51768  53.2154 284.4661 0001816  52.8844 280.1274 15.08830200 20088,6917.91,95.438,541.0319999999998,538.519,0.0
51768.0,STARLINK-3622,PAYLOAD,2022-06-27 22:00:00,15.08853536,0.0001749,53.2151,282.9692,51.9933,292.599,-0.0018177,-0.00029111,0.0,0 STARLINK-3622,1 51768U 22017A   22178.91667824 -.00029111  00000-0 -18177-2 0  9994,2 51768  53.2151 282.9692 0001749  51.9933 292.5990 15.08853536  1309,6917.839,95.437,540.914,538.494,0.0
51768.0,STARLINK-3622,PAYLOAD,2022-06-28 14:00:01,15.08851723,0.0001736,53.2151,279.9773,52.5142,315.2658,-0.0032168,-0.00051137,0.0,0 STARLINK-3622,1 51768U 22017A   22179.58334491 -.00051137  00000-0 -32168-2 0  9998,2 51768  53.2151 279.9773 0001736  52.5142 315.2658 15.08851723 20233,6917.845,95.437,540.91,538.509,0.0
51768.0,STARLINK-3622,PAYLOAD,2022-06-28 22:00:00,15.08835887,0.0001624,53.2146,278.4802,51.0356,328.3301,-0.0020875,-0.00033354,0.0,0 STARLINK-3622,1 51768U 22017A   22179.91667824 -.00033354  00000-0 -20875-2 0  9997,2 51768  53.2146 278.4802 0001624  51.0356 328.3301 15.08835887  1301,6917.893,95.438,540.881,538.634,0.0
51768.0,STARLINK-3622,PAYLOAD,2022-06-29 06:00:00,15.08814052,0.0001528,53.2148,276.983,58.4168,332.5253,0.0018585,0.00029393,0.0,0 STARLINK-3622,1 51768U 22017A   22180.25001157  .00029393  00000-0  18585-2 0  9998,2 51768  53.2148 276.9830 0001528  58.4168 332.5253 15.08814052 20330,6917.96,95.439,540.882,538.768,0.0
51768.0,STARLINK-3622,PAYLOAD,2022-06-29 14:00:01,15.0882385,0.0001695,53.2145,275.4886,52.2182,350.3012,-0.000135,-2.435e-05,0.0,0 STARLINK-3622,1 51768U 22017A   22180.58334491 -.00002435  00000-0 -13500-3 0  9997,2 51768  53.2145 275.4886 0001695  52.2182 350.3012 15.08823850  1308,6917.93,95.439,540.967,538.622,0.0
51768.0,STARLINK-3622,PAYLOAD,2022-06-29 22:00:00,15.08845654,0.0001623,53.214,273.9913,52.1387,1.9547,-0.0020327,-0.00032498,0.0,0 STARLINK-3622,1 51768U 22017A   22180.91667824 -.00032498  00000-0 -20327-2 0  9999,2 51768  53.2140 273.9913 0001623  52.1387   1.9547 15.08845654 20437,6917.863,95.437,540.851,538.605,0.0
51768.0,STARLINK-3622,PAYLOAD,2022-06-30 14:00:01,15.08831696,0.0001724,53.2139,270.9996,51.982,25.2907,0.00029514,4.411e-05,0.0,0 STARLINK-3622,1 51768U 22017A   22181.58334491  .00004411  00000-0  29514-3 0  9994,2 51768  53.2139 270.9996 0001724  51.9820  25.2907 15.08831696  1309,6917.906,95.438,540.9630000000002,538.578,0.0
51768.0,STARLINK-3622,PAYLOAD,2022-06-30 22:00:00,15.08853758,0.0001644,53.2136,269.5021,52.0732,36.7832,-0.0019647,-0.00031432,0.0,0 STARLINK-3622,1 51768U 22017A   22181.91667824 -.00031432  00000-0 -19647-2 0  9990,2 51768  53.2136 269.5021 0001644  52.0732  36.7832 15.08853758  1301,6917.8380000000025,95.437,540.841,538.566,0.0
51768.0,STARLINK-3622,PAYLOAD,2022-07-01 06:00:00,15.08842331,0.0001617,53.2137,268.005,57.8653,42.5885,0.00097255,0.00015225,0.0,0 STARLINK-3622,1 51768U 22017A   22182.25001157  .00015225  00000-0  97255-3 0  9991,2 51768  53.2137 268.0050 0001617  57.8653  42.5885 15.08842331 20638,6917.873000000001,95.437,540.857,538.62,0.0
51768.0,STARLINK-3622,PAYLOAD,2022-07-01 14:00:01,15.08837088,0.0001779,53.2136,266.5104,51.1702,60.8888,0.00074687,0.00011617,0.0,0 STARLINK-3622,1 51768U 22017A   22182.58334491  .00011617  00000-0  74687-3 0  9992,2 51768  53.2136 266.5104 0001779  51.1702  60.8888 15.08837088  1303,6917.889,95.438,540.985,538.524,0.0
51768.0,STARLINK-3622,PAYLOAD,2022-07-01 22:00:00,15.08862401,0.0001686,53.2136,265.0128,51.8572,71.7976,-0.0018156,-0.00029085,0.0,0 STARLINK-3622,1 51768U 22017A   22182.91667824 -.00029085  00000-0 -18156-2 0  9996,2 51768  53.2136 265.0128 0001686  51.8572  71.7976 15.08862401  1308,6917.812,95.436,540.8430000000002,538.511,0.0
51768.0,STARLINK-3622,PAYLOAD,2022-07-02 06:00:00,15.08856413,0.0001669,53.2138,263.5156,56.5752,78.6874,0.00052941,8.151e-05,0.0,0 STARLINK-3622,1 51768U 22017A   22183.25001157  .00008151  00000-0  52941-3 0  9995,2 51768  53.2138 263.5156 0001669  56.5752  78.6874 15.08856413 20789,6917.83,95.437,540.85,538.5409999999998,0.0
51768.0,STARLINK-3622,PAYLOAD,2022-07-02 14:00:01,15.088518900000002,0.0001793,53.2137,262.021,48.7338,98.1503,-0.0014681,-0.00023585,0.0,0 STARLINK-3622,1 51768U 22017A   22183.58334491 -.00023585  00000-0 -14681-2 0  9999,2 51768  53.2137 262.0210 0001793  48.7338  98.1503 15.08851890  1301,6917.844,95.437,540.9490000000002,538.469,0.0
51768.0,STARLINK-3622,PAYLOAD,2022-07-02 22:00:00,15.08854688,0.0001644,53.2136,260.5232,48.8116,109.6838,-0.0011802,-0.00019029,0.0,0 STARLINK-3622,1 51768U 22017A   22183.91667824 -.00019029  00000-0 -11802-2 0  9995,2 51768  53.2136 260.5232 0001644  48.8116 109.6838 15.08854688  1304,6917.835,95.437,540.8380000000002,538.563,0.0
51768.0,STARLINK-3622,PAYLOAD,2022-07-03 06:00:00,15.08857109,0.0001625,53.214,259.0262,53.5115,116.5855,0.00054082,8.334e-05,0.0,0 STARLINK-3622,1 51768U 22017A   22184.25001157  .00008334  00000-0  54082-3 0  9997,2 51768  53.2140 259.0262 0001625  53.5115 116.5855 15.08857109 20944,6917.828,95.436,540.817,538.569,0.0
51768.0,STARLINK-3622,PAYLOAD,2022-07-03 14:00:01,15.08851262,0.0001778,53.2139,257.5315,46.1162,135.5952,-0.0010878,-0.00017564,0.0,0 STARLINK-3622,1 51768U 22017A   22184.58334491 -.00017564  00000-0 -10878-2 0  9994,2 51768  53.2139 257.5315 0001778  46.1162 135.5952 15.08851262  1305,6917.846,95.437,540.941,538.481,0.0
51768.0,STARLINK-3622,PAYLOAD,2022-07-03 22:00:00,15.08840918,0.0001636999999999,53.2138,256.0335,48.3354,144.9779,-0.0041849,-0.0006628,0.0,0 STARLINK-3622,1 51768U 22017A   22184.91667824 -.00066280  00000-0 -41849-2 0  9991,2 51768  53.2138 256.0335 0001637  48.3354 144.9779 15.08840918  1308,6917.878000000002,95.437,540.875,538.61,0.0
51768.0,STARLINK-3622,PAYLOAD,2022-07-04 14:00:01,15.08788826,0.0001826,53.214,253.0421,46.7191,169.722,0.0021791,0.00034514,0.0,0 STARLINK-3622,1 51768U 22017A   22185.58334491  .00034514  00000-0  21791-2 0  9993,2 51768  53.2140 253.0421 0001826  46.7191 169.7220 15.08788826  1300,6918.0369999999975,95.441,541.165,538.639,0.0
51768.0,STARLINK-3622,PAYLOAD,2022-07-04 22:00:00,15.08819499,0.0001657,53.2139,251.5441,49.9286,178.0679,-0.00075987,-0.00012354,0.0,0 STARLINK-3622,1 51768U 22017A   22185.91667824 -.00012354  00000-0 -75987-3 0  9996,2 51768  53.2139 251.5441 0001657  49.9286 178.0679 15.08819499  1307,6917.943,95.439,540.9540000000002,538.6619999999998,0.0
51768.0,STARLINK-3622,PAYLOAD,2022-07-05 14:00:01,15.08802031,0.0001811,53.2138,248.5528,47.0267,204.1132,0.0024796,0.00039355,0.0,0 STARLINK-3622,1 51768U 22017A   22186.58334491  .00039355  00000-0  24796-2 0  9990,2 51768  53.2138 248.5528 0001811  47.0267 204.1132 15.08802031  1307,6917.996,95.44,541.114,538.609,0.0
51768.0,STARLINK-3622,PAYLOAD,2022-07-05 22:00:00,15.08824575,0.0001635,53.2138,247.0547,50.9196,211.788,-0.0004067,-6.752e-05,0.0,0 STARLINK-3622,1 51768U 22017A   22186.91667824 -.00006752  00000-0 -40670-3 0  9993,2 51768  53.2138 247.0547 0001635  50.9196 211.7880 15.08824575  1301,6917.928000000001,95.439,540.924,538.661,0.0
51768.0,STARLINK-3622,PAYLOAD,2022-07-06 06:00:00,15.08839604,0.0001628,53.2139,245.5585,54.4043,219.8712,-0.0010258,-0.00016576,0.0,0 STARLINK-3622,1 51768U 22017A   22187.25001157 -.00016576  00000-0 -10258-2 0  9995,2 51768  53.2139 245.5585 0001628  54.4043 219.8712 15.08839604 21392,6917.882,95.438,540.873,538.62,0.0
51768.0,STARLINK-3622,PAYLOAD,2022-07-06 14:00:01,15.08806996,0.0001799,53.2136,244.0635,47.7632,238.1045,0.0025173,0.00039966,0.0,0 STARLINK-3622,1 51768U 22017A   22187.58334491  .00039966  00000-0  25173-2 0  9999,2 51768  53.2136 244.0635 0001799  47.7632 238.1045 15.08806996  1307,6917.981,95.44,541.091,538.602,0.0
51768.0,STARLINK-3622,PAYLOAD,2022-07-06 20:41:14,15.08820393,0.0001739,53.2147,242.8114,50.8572,309.2574,0.00010602,1.399e-05,0.0,0 STARLINK-3622,1 51768U 22017A   22187.86196941  .00001399  00000-0  10602-3 0  9997,2 51768  53.2147 242.8114 0001739  50.8572 309.2574 15.08820393 21473,6917.94,95.439,541.008,538.602,0.0
51768.0,STARLINK-3622,PAYLOAD,2022-07-07 12:35:05,15.08827359,0.0001757,53.2146,239.8375,51.5229,308.5921,9.2092e-05,1.177e-05,0.0,0 STARLINK-3622,1 51768U 22017A   22188.52437277  .00001177  00000-0  92092-4 0  9999,2 51768  53.2146 239.8375 0001757  51.5229 308.5921 15.08827359 21583,6917.919,95.438,541.0,538.569,0.0
51768.0,STARLINK-3622,PAYLOAD,2022-07-07 20:32:01,15.08831409,0.000179,53.2146,238.3506,50.8619,309.2532,0.00010954,1.455e-05,0.0,0 STARLINK-3622,1 51768U 22017A   22188.85557225  .00001455  00000-0  10954-3 0  9996,2 51768  53.2146 238.3506 0001790  50.8619 309.2532 15.08831409 21627,6917.906999999997,95.438,541.01,538.533,0.0
